SL-3 R/B                
1 19046U 88032B   24001.55350734  .00003501  00000+0  22862-3 0  9991
2 19046  97.4346 348.3580 0035180 112.8770 247.6179 15.07966516931330
SL-16 R/B               
1 19120U 88039B   24001.29276937 -.00000067  00000+0 -90060-5 0  9997
2 19120  71.0153 316.4466 0020017 128.8295 231.4621 14.19365973845089
COSMOS 1953             
1 19210U 88050A   24001.61608889  .00003880  00000+0  22044-3 0  9990
2 19210  82.5146 231.1230 0016751  33.0837 327.1437 15.12520069916517
SL-8 R/B                
1 19257U 88053B   24001.57102029  .00000348  00000+0  12339-3 0  9996
2 19257  74.0474 142.5993 0019863 164.3391 269.8703 14.38016762861838
COSMOS 1975             
1 19573U 88093A   24001.55767768  .00004451  00000+0  25936-3 0  9992
2 19573  82.5271 188.3633 0016817  76.2466 284.0635 15.11643902898171
SL-14 R/B               
1 19574U 88093B   24001.59834262  .00000552  00000+0  62918-4 0  9991
2 19574  82.5314  70.3811 0021972 153.0719 322.0810 14.84177724882591
SL-16 R/B               
1 19650U 88102B   24001.53348674  .00000251  00000+0  15124-3 0  9990
2 19650  71.0001  30.6211 0013077 154.6570 205.5198 14.15934714813901
INTERCOSMOS 24          
1 20261U 89080A   24001.23811049  .00001453  00000+0  43023-3 0  9998
2 20261  82.6056 263.1051 1197390 343.0174  13.3873 12.57492171566359
SL-14 R/B               
1 20262U 89080C   24001.35086914  .00000211  00000+0  60840-4 0  9995
2 20262  82.5948 325.5269 1233636 208.3620 144.4658 12.49556689560409
DELTA 1 R/B             
1 20323U 89089B   24001.44102815  .00000470  00000+0  12827-3 0  9999
2 20323  97.0968 322.3871 0072067 120.0442 240.7929 14.49194146780058
ARIANE 40 R/B           
1 20443U 90005H   24001.15540119  .00000344  00000+0  12614-3 0  9997
2 20443  98.4171  70.1325 0011413  84.4368 275.8121 14.38739432777939
DELTA 2 R/B(1)          
1 20453U 90008B   24001.57513215  .00008304  00000+0  35342-3 0  9991
2 20453  35.6192 132.5854 0222336  23.0557 337.9964 15.02788554804244
COSMOS 2058             
1 20465U 90010A   24001.37646622  .00003611  00000+0  27341-3 0  9990
2 20465  82.4882 107.0583 0014744 152.7683 207.4318 15.01946209822023
SL-14 R/B               
1 20466U 90010B   24001.32191052  .00000648  00000+0  78131-4 0  9999
2 20466  82.5036 296.4198 0021623  51.7913 308.5243 14.82178599810168
SL-14 R/B               
1 20511U 90018B   24001.21299240  .00000489  00000+0  60330-4 0  9999
2 20511  82.5224 248.6872 0016699 191.7553 289.0128 14.80806509804354
HST                     
1 20580U 90037B   24001.52748420  .00005154  00000+0  25596-3 0  9997
2 20580  28.4706  26.3118 0002344  16.3537 116.4054 15.15387922651559
SL-16 R/B               
1 20625U 90046B   24001.60292144 -.00000122  00000+0 -38633-4 0  9992
2 20625  70.9973 173.7550 0012005  75.3067 284.9385 14.14791177735507
COSMOS 2084             
1 20663U 90055A   24001.58662981  .00003498  00000+0  27424-3 0  9993
2 20663  62.7905 161.3466 0126167 104.5323 256.9807 14.96866882816466
SL-6 R/B(2)             
1 20666U 90055D   24001.53071250  .00002292  00000+0  19407-3 0  9997
2 20666  62.7847  75.1976 0107297 126.3670 234.7385 14.96762970818428
SL-8 R/B                
1 20775U 90078B   24001.61880084  .00009325  00000+0  38422-3 0  9997
2 20775  82.9167 229.6026 0494449 110.2716 255.2339 14.54577407691925
SL-8 R/B                
1 21088U 91006B   24001.60091955  .00000118  00000+0  10319-3 0  9993
2 21088  82.9418  43.6904 0023880 109.5394   1.3878 13.77303120654202
OKEAN-3                 
1 21397U 91039A   24001.52304152  .00002562  00000+0  22089-3 0  9991
2 21397  82.5198  25.5319 0017679 149.8750 210.3493 14.96810011745308
COSMOS 2151             
1 21422U 91042A   24001.41330313  .00002226  00000+0  20182-3 0  9999
2 21422  82.5000 130.5379 0012782 225.6577 134.3598 14.94855574743717
SL-14 R/B               
1 21423U 91042B   24001.62824011  .00000467  00000+0  57846-4 0  9999
2 21423  82.4932 247.8645 0017050 346.6840  13.3921 14.80533320734936
ERS-1                   
1 21574U 91050A   24001.57262864  .00000354  00000+0  13039-3 0  9991
2 21574  98.7642 349.6339 0033491  49.5423 310.8675 14.38336923700954
ARIANE 40 R/B           
1 21610U 91050F   24001.20419529  .00000433  00000+0  14597-3 0  9992
2 21610  98.3143  67.8025 0002689 351.9251   8.1894 14.41633965703898
INTERCOSMOS 25          
1 21819U 91086A   24001.57472315  .00001472  00000+0  28721-3 0  9992
2 21819  82.6041  71.0965 1504887  32.4033 336.1029 12.08053260400151
SL-8 R/B                
1 21876U 92008B   24001.46056682  .00000079  00000+0  65549-4 0  9995
2 21876  82.9274 141.3212 0034418 202.0182 218.6432 13.75785124599650
SL-8 R/B                
1 21938U 92020B   24001.56331302  .00000019  00000+0  37846-5 0  9998
2 21938  82.9300  26.4849 0029297   8.3010 104.9588 13.75388000591411
COSMOS 2219             
1 22219U 92076A   24001.10095716 -.00000243  00000+0 -10335-3 0  9991
2 22219  71.0589 247.1593 0019135 332.9016  27.1106 14.13811166605495
SL-16 R/B               
1 22220U 92076B   24001.58476025  .00000176  00000+0  11211-3 0  9998
2 22220  71.0009  69.2662 0014799 237.6831 230.2081 14.16615660608790
COSMOS 2221             
1 22236U 92080A   24001.37693305  .00002346  00000+0  23591-3 0  9994
2 22236  82.5076 320.4845 0015624 353.1646   6.9358 14.90756500661626
SL-16 R/B               
1 22285U 92093B   24001.60286186  .00000118  00000+0  85389-4 0  9992
2 22285  71.0210 239.3795 0001987  75.7280 284.4063 14.15218754600230
COSMOS 2228             
1 22286U 92094A   24001.23320901  .00002194  00000+0  21760-3 0  9995
2 22286  82.5199 278.3337 0021849  99.4459 260.9231 14.91169634656816
SL-16 R/B               
1 22566U 93016B   24001.56881959  .00000344  00000+0  20178-3 0  9999
2 22566  71.0080  91.2074 0008153 100.3188 259.8854 14.15094550589254
COSMOS 2242             
1 22626U 93024A   24001.36716946  .00002125  00000+0  21234-3 0  9999
2 22626  82.5218 306.9410 0019936 100.4367 259.9100 14.90882791661208
SL-16 R/B               
1 22803U 93059B   24001.63517028 -.00000084  00000+0 -18049-4 0  9999
2 22803  70.9898 253.7652 0017915 338.7595  21.2783 14.16983981566472
ARIANE 40 R/B           
1 22830U 93061H   24001.58945986  .00000282  00000+0  12154-3 0  9992
2 22830  98.5942  71.0494 0011869 120.3012 239.9348 14.31953124579847
COSMOS 2278             
1 23087U 94023A   24001.53412139 -.00000174  00000+0 -66890-4 0  9999
2 23087  71.0532  44.5691 0008743 184.8982 175.2056 14.14027061531967
SL-16 R/B               
1 23088U 94023B   24001.27000938 -.00000215  00000+0 -86730-4 0  9992
2 23088  71.0004 307.3955 0001211  28.1341 331.9847 14.14807248533152
SL-16 R/B               
1 23343U 94074B   24001.58211931  .00000553  00000+0  83920-4 0  9994
2 23343  97.8134  49.8751 0005490 301.2327 220.6920 14.77776847569301
SL-16 R/B               
1 23405U 94077B   24001.06674751 -.00000227  00000+0 -91990-4 0  9998
2 23405  70.9817 232.3771 0004974 284.5956  75.4615 14.15354374503223
ERS-2                   
1 23560U 95021A   24001.53601789  .00150039  00000+0  11353-2 0  9991
2 23560  98.5224   7.9282 0003449  82.9026 277.2625 15.71941853539948
ARIANE 40+ R/B          
1 23561U 95021B   24001.17449917  .00000344  00000+0  12666-3 0  9997
2 23561  98.5509  68.4872 0007008  19.6212  38.6124 14.38655418504385
SL-16 R/B               
1 23705U 95058B   24001.60083850  .00000259  00000+0  15716-3 0  9999
2 23705  71.0228  55.5690 0014789 257.9386 102.0080 14.15278646454927
SL-16 R/B               
1 24298U 96051B   24001.60012332 -.00000146  00000+0 -52248-4 0  9997
2 24298  70.8192  62.6023 0017970 237.4942 122.4442 14.12510071408955
ORBVIEW 2 (SEASTAR)     
1 24883U 97037A   24001.38777298  .00000444  00000+0  17418-3 0  9994
2 24883  98.7494 138.9892 0001404 235.6558 124.4494 14.34303961393985
SL-16 R/B               
1 25400U 98043G   24001.46107402  .00000104  00000+0  62597-4 0  9993
2 25400  98.7287 303.0846 0010076 165.7672 194.3793 14.25683001325237
SL-16 R/B               
1 25407U 98045B   24001.57377519 -.00000145  00000+0 -49396-4 0  9991
2 25407  71.0115  59.7123 0007109 181.2798 178.8308 14.15959726314119
ISS (ZARYA)             
1 25544U 98067A   24001.66506447  .00052203  00000+0  91650-3 0  9990
2 25544  51.6444  65.4073 0003179 343.4458 120.7618 15.50002034432578
CZ-4B R/B               
1 25732U 99025C   24001.62280057  .00000090  00000+0  64924-4 0  9998
2 25732  98.7779  48.9151 0038213 115.5461  47.1619 14.17901894275057
OKEAN-O                 
1 25860U 99039A   24001.61781497  .00000802  00000+0  11842-3 0  9999
2 25860  98.0625  54.0986 0001728  76.7460 283.3943 14.77993839316409
SL-16 R/B               
1 25861U 99039B   24001.61787509  .00000672  00000+0  96574-4 0  9991
2 25861  98.1140  46.1618 0014546 324.0452  35.9779 14.79722280318759
DELTA 2 R/B             
1 25876U 99041E   24001.63191876  .00001219  00000+0  24199-3 0  9999
2 25876  51.7624 238.6422 0521281 160.5506 201.6151 14.07248294250457
HELIOS 1B               
1 25977U 99064A   24001.56455145  .00000967  00000+0  12346-3 0  9990
2 25977  98.2666 227.4178 0002295 109.9613 250.1848 14.83874369566757
TERRA                   
1 25994U 99068A   24001.63701671  .00000580  00000+0  13161-3 0  9996
2 25994  98.0723  69.8979 0002536 138.1827  17.7186 14.59514800278604
SL-16 R/B               
1 26070U 00006B   24001.31235984  .00000330  00000+0  19258-3 0  9996
2 26070  71.0032 336.2743 0018350 311.6365  48.3185 14.15594694235568
TITAN 4B R/B            
1 26474U 00047B   24001.57372726  .00003764  00000+0  29938-3 0  9993
2 26474  67.9934 109.5873 0053222 218.3135 141.4224 15.00460099272804
ENVISAT                 
1 27386U 02009A   24001.54373506  .00000181  00000+0  72999-4 0  9996
2 27386  98.2599 328.6927 0001150  83.6484  28.8911 14.38474013144404
